     2.10           NAVIGATION                              RINEX VERSION / TYPE
fic2rin                                 06/24/2008 01:08:25 PGM / RUN BY / DATE
                                                            END OF HEADER
13 08  6 23  8  0  0.0  .260963570327D-03  .159161572810D-11  .000000000000D+00
     .200000000000D+01  .923437500000D+02  .367658171581D-08 -.671554408045D+00
     .476464629173D-05  .383735622745D-02  .653229653835D-05  .515361950493D+04
     .115200000000D+06  .745058059692D-08  .147936073574D+01  .104308128357D-06
     .995271621172D+00  .271531250000D+03  .148437392632D+01 -.782104006343D-08
     .147506144223D-09  .100000000000D+01  .148500000000D+04  .000000000000D+00
     .240000000000D+01  .000000000000D+00 -.111758708954D-07  .200000000000D+01
     .108006000000D+06  .400000000000D+01
15 08  6 23  8  0  0.0 -.131185166538D-03 -.613908923697D-11  .000000000000D+00
     .540000000000D+02  .895625000000D+02  .437161066656D-08  .235441421252D-01
     .475533306599D-05  .641784514301D-03  .726431608200D-05  .515367376900D+04
     .115200000000D+06 -.428408384323D-07  .141998180961D+01 -.502914190292D-07
     .957398339827D+00  .239843750000D+03 -.125666464154D+01 -.811069498586D-08
     .675028117631D-10  .100000000000D+01  .148500000000D+04  .000000000000D+00
     .240000000000D+01  .000000000000D+00 -.977888703346D-08  .540000000000D+02
     .108006000000D+06  .400000000000D+01
18 08  6 23  8  0  0.0 -.164359807968D-03  .420641299570D-11  .000000000000D+00
     .900000000000D+01  .220000000000D+02  .481555773017D-08  .109902110719D+01
     .137463212013D-05  .947162648663D-02  .969879329205D-05  .515369774055D+04
     .115200000000D+06 -.838190317154D-07  .420233521602D+00  .931322574615D-07
     .947704172734D+00  .188406250000D+03 -.250373717646D+01 -.822712840721D-08
    -.583952895411D-09  .100000000000D+01  .148500000000D+04  .000000000000D+00
     .240000000000D+01  .000000000000D+00 -.107102096081D-07  .900000000000D+01
     .108006000000D+06  .400000000000D+01
19 08  6 23  8  0  0.0  .324603170156D-04  .682121026330D-12  .000000000000D+00
     .750000000000D+02  .234687500000D+02  .480805741775D-08 -.697999727382D+00
     .955536961555D-06  .478398380801D-02  .853836536407D-05  .515369387054D+04
     .115200000000D+06 -.670552253723D-07 -.164032213172D+01 -.968575477600D-07
     .956964621189D+00  .212125000000D+03 -.591219695382D+00 -.808462247126D-08
     .520021660989D-09  .100000000000D+01  .148500000000D+04  .000000000000D+00
     .240000000000D+01  .000000000000D+00 -.144354999065D-07  .750000000000D+02
     .108006000000D+06  .400000000000D+01
20 08  6 23  8  0  0.0  .111508183181D-03 -.795807864051D-12  .000000000000D+00
     .720000000000D+02  .227187500000D+02  .476484133191D-08  .114208362814D+01
     .106729567051D-05  .364292447921D-02  .967644155025D-05  .515354620743D+04
     .115200000000D+06 -.894069671631D-07  .366640778803D+00  .204890966415D-07
     .947235377710D+00  .186750000000D+03  .134914505747D+01 -.808926552181D-08
    -.457876215239D-09  .100000000000D+01  .148500000000D+04  .000000000000D+00
     .240000000000D+01  .000000000000D+00 -.651925802231D-08  .720000000000D+02
     .108006000000D+06  .400000000000D+01
21 08  6 23  8  0  0.0  .603590160608D-04 -.125055521494D-11  .000000000000D+00
     .980000000000D+02  .556250000000D+01  .555130266261D-08  .228129653263D+01
     .266358256340D-06  .140794233885D-01  .590272247791D-05  .515370591927D+04
     .115200000000D+06 -.372529029846D-06 -.637602336708D+00 -.353902578354D-07
     .936039279439D+00  .257250000000D+03 -.271017109293D+01 -.841785063727D-08
    -.112147528538D-09  .100000000000D+01  .148500000000D+04  .000000000000D+00
     .240000000000D+01  .000000000000D+00 -.116415321827D-07  .980000000000D+02
     .108006000000D+06  .400000000000D+01
22 08  6 23  8  0  0.0  .211524777114D-03  .113686837722D-12  .000000000000D+00
     .920000000000D+02  .193437500000D+02  .490841874106D-08 -.193844516002D+00
     .112317502499D-05  .488001469057D-02  .917911529541D-05  .515366796112D+04
     .115200000000D+06 -.484287738800D-07  .426666623395D+00 -.167638063431D-07
     .945340484791D+00  .192593750000D+03 -.182008051967D+01 -.827534470132D-08
    -.471091051405D-09  .100000000000D+01  .148500000000D+04  .000000000000D+00
     .485000000000D+01  .000000000000D+00 -.181607902050D-07  .920000000000D+02
     .108006000000D+06  .400000000000D+01
23 08  6 23  8  0  0.0  .360806006938D-03  .193267624127D-11  .000000000000D+00
     .680000000000D+02  .864062500000D+02  .417053086221D-08 -.138362096320D+01
     .444427132607D-05  .566818495281D-02  .634789466858D-05  .515372221756D+04
     .115200000000D+06 -.109896063805D-06  .143527032319D+01  .558793544769D-08
     .971147442269D+00  .264437500000D+03  .275142444796D+01 -.796533178804D-08
     .162863926793D-09  .100000000000D+01  .148500000000D+04  .000000000000D+00
     .240000000000D+01  .000000000000D+00 -.200234353542D-07  .680000000000D+02
     .108006000000D+06  .400000000000D+01
24 08  6 23  8  0  0.0  .104025471956D-03  .295585778076D-11  .000000000000D+00
     .670000000000D+02  .478125000000D+01  .520164524083D-08  .915665498766D+00
     .186264514923D-06  .766372610815D-02  .582635402679D-05  .515366337967D+04
     .115200000000D+06  .104308128357D-06 -.611201434490D+00 -.119209289551D-06
     .952717638342D+00  .263437500000D+03 -.729289944665D+00 -.832820404598D-08
    -.160006664920D-09  .100000000000D+01  .148500000000D+04  .000000000000D+00
     .240000000000D+01  .000000000000D+00 -.139698386192D-08  .670000000000D+02
     .108006000000D+06  .400000000000D+01
26 08  6 23  8  0  0.0  .279332511127D-03  .716227077646D-11  .000000000000D+00
     .630000000000D+02  .923750000000D+02  .356443418728D-08 -.200959926737D+01
     .477954745293D-05  .191745643970D-01  .660866498947D-05  .515361557198D+04
     .115200000000D+06  .214204192162D-06  .147795402151D+01 -.175088644028D-06
     .993212771710D+00  .268687500000D+03  .942479843577D+00 -.748352600461D-08
     .266796827444D-09  .100000000000D+01  .148500000000D+04  .000000000000D+00
     .240000000000D+01  .000000000000D+00 -.605359673500D-08  .630000000000D+02
     .108006000000D+06  .400000000000D+01
27 08  6 23  8  0  0.0  .197639223188D-03  .272848410532D-11  .000000000000D+00
     .230000000000D+02 -.312187500000D+02  .448090093322D-08  .143813245512D+01
    -.206381082535D-05  .210895454511D-01  .262819230556D-05  .515375903130D+04
     .115200000000D+06 -.210478901863D-06  .241913762165D+01 -.519677996635D-06
     .969814520553D+00  .336968750000D+03 -.170351339895D+01 -.842570810742D-08
    -.282154610015D-10  .100000000000D+01  .148500000000D+04  .000000000000D+00
     .240000000000D+01  .000000000000D+00 -.419095158577D-08  .230000000000D+02
     .108006000000D+06  .400000000000D+01
28 08  6 23  8  0  0.0 -.203642994165D-04 -.454747350886D-12  .000000000000D+00
     .100000000000D+02 -.886875000000D+02  .425160566787D-08  .165716583401D+00
    -.465288758278D-05  .138133311411D-01  .979565083981D-05  .515372153091D+04
     .115200000000D+06 -.167638063431D-06 -.272973938360D+01  .240281224251D-06
     .964216186149D+00  .196343750000D+03 -.209632295876D+01 -.808997983728D-08
     .364300888880D-10  .100000000000D+01  .148500000000D+04  .000000000000D+00
     .240000000000D+01  .000000000000D+00 -.102445483208D-07  .100000000000D+02
     .108006000000D+06  .400000000000D+01
29 08  6 23  8  0  0.0 -.424031168222D-04  .000000000000D+00  .000000000000D+00
     .820000000000D+02  .681250000000D+01  .471555356459D-08  .237356825452D+01
     .255182385445D-06  .376165483613D-02  .905431807041D-05  .515364517975D+04
     .115200000000D+06  .782310962677D-07 -.168919523893D+01 -.558793544769D-07
     .959313704821D+00  .208656250000D+03 -.140315363180D+01 -.791318675885D-08
     .460019161645D-09  .100000000000D+01  .148500000000D+04  .000000000000D+00
     .240000000000D+01  .000000000000D+00 -.884756445885D-08  .820000000000D+02
     .108006000000D+06  .400000000000D+01
30 08  6 23  8  0  0.0  .825175084174D-04  .181898940355D-11  .000000000000D+00
     .860000000000D+02 -.889375000000D+02  .464090759814D-08  .637733128899D+00
    -.481493771076D-05  .107096366119D-01  .852160155773D-05  .515372565842D+04
     .115200000000D+06 -.128522515297D-06 -.279699465627D+01 -.894069671631D-07
     .949245137493D+00  .210250000000D+03  .137583294032D+01 -.828820237975D-08
    -.275011455331D-10  .100000000000D+01  .148500000000D+04  .000000000000D+00
     .340000000000D+01  .000000000000D+00 -.838190317154D-08  .860000000000D+02
     .108006000000D+06  .400000000000D+01
31 08  6 23  8  0  0.0 -.243671238422D-04 -.136424205266D-11  .000000000000D+00
     .430000000000D+02 -.346562500000D+02  .432160858377D-08  .305590856007D+01
    -.165589153767D-05  .666883215308D-02  .279210507870D-05  .515376760292D+04
     .115200000000D+06  .596046447754D-07  .247572549172D+01  .111758708954D-07
     .968284815875D+00  .330656250000D+03 -.122157473593D+01 -.808855120634D-08
    -.403588239642D-10  .100000000000D+01  .148500000000D+04  .000000000000D+00
     .240000000000D+01  .000000000000D+00 -.130385160446D-07  .430000000000D+02
     .108006000000D+06  .400000000000D+01
32 08  6 23  8  0  0.0  .300622545183D-03  .386535248253D-11  .000000000000D+00
     .350000000000D+02  .364687500000D+02  .409088468748D-08 -.208931337947D+01
     .187382102013D-05  .136994078057D-01  .979751348495D-05  .515463679504D+04
     .115200000000D+06  .633299350739D-07  .469004995506D+00  .348314642906D-06
     .969114457199D+00  .192812500000D+03 -.129834147917D+01 -.759781647955D-08
    -.456090426568D-09  .100000000000D+01  .148500000000D+04  .000000000000D+00
     .240000000000D+01  .000000000000D+00 -.279396772385D-08  .350000000000D+02
     .108006000000D+06  .400000000000D+01
